CUTE-1 (CO-55)          
1 27844U 03031E   22150.84126365  .00000188  00000+0  10369-3 0  9995
2 27844  98.6784 158.7939 0010529 147.0543 213.1293 14.22445815981366
CUBESAT XI-IV (CO-57)   
1 27848U 03031J   22150.51731299  .00000166  00000+0  94919-4 0  9991
2 27848  98.6830 158.9981 0010105 161.2479 198.9072 14.22003489981134
CUBESAT XI-V            
1 28895U 05043F   22150.82096280  .00000740  00000+0  14903-3 0  9999
2 28895  98.1042 282.4739 0016441 192.3433 167.7369 14.64318331884838
CUTE-1.7+APD II (CO-65) 
1 32785U 08021C   22150.83039224  .00001453  00000+0  15794-3 0  9998
2 32785  97.6563 122.2394 0011113 296.2067  63.8008 14.89539906763864
AAUSAT-II               
1 32788U 08021F   22150.86290533  .00002532  00000+0  22254-3 0  9994
2 32788  97.5330 136.8042 0011212 171.3600 188.7818 14.97367848765901
DELFI-C3 (DO-64)        
1 32789U 08021G   22151.02993451  .00009497  00000+0  53367-3 0  9999
2 32789  97.3390 177.9625 0010892  35.6871 324.5086 15.13457238769390
SEEDS II (CO-66)        
1 32791U 08021J   22150.67799128  .00002584  00000+0  25619-3 0  9996
2 32791  97.6103 127.6058 0011049 246.0642 113.9421 14.92593376764544
SWISSCUBE               
1 35932U 09051B   22150.86247889  .00000525  00000+0  12802-3 0  9996
2 35932  98.5705   6.3086 0008758  99.6033 260.6154 14.56845032673535
BEESAT-1                
1 35933U 09051C   22150.88642527  .00000452  00000+0  11168-3 0  9990
2 35933  98.5646   7.9747 0006907 109.6102 250.5841 14.56863726673692
ITUPSAT1                
1 35935U 09051E   22150.82440409  .00000414  00000+0  10518-3 0  9997
2 35935  98.5748   7.9715 0009157 113.5812 246.6347 14.55974216673316
TISAT 1                 
1 36799U 10035E   22150.55625325  .00001765  00000+0  17637-3 0  9991
2 36799  98.1841   0.2964 0012507 149.0888 211.1068 14.92819451645290
M-CUBED & EXP-1 PRIME   
1 37855U 11061F   22150.57352250  .00012305  00000+0  54129-3 0  9990
2 37855 101.7074 260.2027 0154384 116.1377 245.5812 15.12015797578533
AEROCUBE 4.5A           
1 38767U 12048K   22150.78878402  .00002992  00000+0  21468-3 0  9995
2 38767  64.6633 166.3160 0176626 267.4022  90.6863 14.94739916148148
AEROCUBE 4.5B           
1 38768U 12048L   22151.19320924  .00004153  00000+0  26686-3 0  9991
2 38768  64.6651 119.9993 0164225 262.6514  95.5912 14.99432862148562
STRAND-1                
1 39090U 13009E   22150.80129483  .00000204  00000+0  86142-4 0  9999
2 39090  98.4055 349.3986 0008436 331.3178  28.7543 14.35294150484866
BRITE-AUSTRIA           
1 39091U 13009F   22150.78579690  .00000103  00000+0  50758-4 0  9998
2 39091  98.4069 348.5497 0009953 337.3022  22.7723 14.35270296484891
SOMP                    
1 39134U 13015E   22150.63364838  .00012074  00000+0  43820-3 0  9994
2 39134  64.8606 120.3555 0034412 283.4328  76.2969 15.28096655504136
BEESAT-3                
1 39135U 13015F   22150.73586911  .00007822  00000+0  32801-3 0  9996
2 39135  64.8642 155.6511 0037105 290.7996  68.9160 15.23546130503418
BEESAT-2                
1 39136U 13015G   22150.77272682  .00006859  00000+0  30140-3 0  9991
2 39136  64.8725 163.5748 0015288 298.2789  61.6796 15.22597076503220
NEE-01 PEGASO           
1 39151U 13018B   22151.21448056  .00000952  00000+0  12991-3 0  9993
2 39151  97.9897 256.9380 0015741 314.1524  45.8393 14.80903327491138
ESTCUBE 1               
1 39161U 13021C   22151.16786435  .00001394  00000+0  22488-3 0  9991
2 39161  97.9079 228.8535 0010376 112.0155 248.2127 14.72925393486928
POPACS 1                
1 39268U 13055D   22150.72291163  .00009451  00000+0  24429-3 0  9995
2 39268  80.9988 258.5531 0573147 254.0074  99.7290 14.49765910450731
POPACS 2                
1 39269U 13055E   22150.49209973  .00008249  00000+0  22499-3 0  9997
2 39269  81.0098 315.0761 0648505  40.6610 324.1163 14.32722987447612
POPACS 3                
1 39270U 13055F   22150.85293527  .00006959  00000+0  20902-3 0  9990
2 39270  81.0137 347.2393 0690918 131.6975 234.5483 14.21664027446836
ZACUBE-1 (TSHEPISOSAT)  
1 39417U 13066B   22150.88388857  .00001503  00000+0  18881-3 0  9992
2 39417  97.6350 123.1770 0059554 101.9095 258.8805 14.82280192460520
WNISAT-1                
1 39423U 13066H   22151.08378924  .00000411  00000+0  90401-4 0  9992
2 39423  97.7566  33.8419 0173680 191.7601 167.9501 14.53469249451928
TRITON-1                
1 39427U 13066M   22151.10114625  .00001253  00000+0  20320-3 0  9992
2 39427  97.8131  87.6516 0110991 320.8913  38.4308 14.68933567456425
DELFI-N3XT              
1 39428U 13066N   22150.75053110  .00002324  00000+0  36428-3 0  9990
2 39428  97.8145  85.8702 0116953 335.3359  24.2281 14.69122280455938
GOMX-1                  
1 39430U 13066Q   22151.04910445  .00001540  00000+0  28127-3 0  9995
2 39430  97.8103  59.2416 0150748  99.6507 262.1758 14.60143167453755
CUBEBUG-2 (LO-74)       
1 39440U 13066AA  22150.84123257  .00000978  00000+0  13924-3 0  9993
2 39440  97.7251 109.1416 0078494 187.4804 172.5242 14.76961666457684
NEE-02 KRYSAOR          
1 39441U 13066AB  22150.82847372  .00000686  00000+0  10263-3 0  9992
2 39441  97.7361 106.3248 0080012 201.0589 158.7321 14.75711842457436
FUNCUBE-1 (AO-73)       
1 39444U 13066AE  22150.91335041  .00001761  00000+0  21482-3 0  9990
2 39444  97.6233 125.6082 0058511  90.5051 270.2869 14.83350009458925
UWE-3                   
1 39446U 13066AG  22150.82597132  .00001195  00000+0  16022-3 0  9998
2 39446  97.6843 115.6545 0069619 145.6534 214.9209 14.79510875457854
AEROCUBE 5A             
1 39465U 13072D   22151.20516269  .00020291  00000+0  12445-2 0  9993
2 39465 120.4845 248.1633 0198002 259.4424  98.4277 14.95358673147044
AEROCUBE 5B             
1 39466U 13072E   22150.99594038  .00043247  00000+0  17333-2 0  9996
2 39466 120.4607 331.6423 0148674 281.6752  76.7670 15.15074857148080
BRITE-CA1 (TORONTO)     
1 40020U 14033L   22151.16120035  .00000365  00000+0  70184-4 0  9993
2 40020  97.7764 311.0027 0085898 319.3572  40.1242 14.67023663425237
DUCHIFAT-1              
1 40021U 14033M   22150.84569048  .00002206  00000+0  21889-3 0  9992
2 40021  98.0117 100.7302 0014133  97.6768 262.6056 14.92769486432072
NANOSATC-BR1            
1 40024U 14033Q   22150.83722379  .00002176  00000+0  22218-3 0  9995
2 40024  97.9851  94.1834 0013542 103.5073 256.7655 14.91633540431352
QB50P1                  
1 40025U 14033R   22150.80218657  .00001439  00000+0  15336-3 0  9996
2 40025  97.9604  88.0661 0013715 112.2331 248.0342 14.90430761431137
QB50P2                  
1 40032U 14033Y   22150.75377387  .00002000  00000+0  21381-3 0  9996
2 40032  97.9381  83.4646 0013174 110.2966 249.9668 14.89863152430985
PERSEUS-M2              
1 40037U 14033AD  22150.74467542  .00000730  00000+0  87450-4 0  9991
2 40037  97.8971  73.0665 0015355 131.9947 228.2580 14.87073453430496
PERSEUS-M1              
1 40039U 14033AF  22150.60019103  .00000711  00000+0  86059-4 0  9997
2 40039  97.8876  70.7187 0015228 131.4869 228.7656 14.86683632430351
POLYITAN-1              
1 40042U 14033AJ  22150.81662283  .00001972  00000+0  20784-3 0  9999
2 40042  97.9706  89.2474 0015989 105.2157 255.0830 14.90433645431029
TIGRISAT                
1 40043U 14033AK  22150.52193826  .00000883  00000+0  13515-3 0  9994
2 40043  97.6566 340.7508 0058454 213.4085 146.3432 14.74973495426983
AEROCUBE 6A             
1 40045U 14033AM  22150.77941363  .00000965  00000+0  14267-3 0  9996
2 40045  97.6675 349.6998 0056231 200.3252 159.5721 14.76355169427172
AEROCUBE 6B             
1 40046U 14033AN  22151.03135817  .00001513  00000+0  21803-3 0  9990
2 40046  97.6584 348.4146 0055435 197.7617 162.1658 14.76659194427593
UKUBE-1                 
1 40074U 14037F   22151.10637951  .00002397  00000+0  28559-3 0  9995
2 40074  98.3852  30.8684 0004791   1.1332 358.9884 14.85353735427497
BRITE-PL2 (HEWELIUSZ)   
1 40119U 14049B   22151.02811604  .00000789  00000+0  98511-4 0  9997
2 40119  97.8827 246.8333 0015947 301.6487  58.3172 14.85099481421510
FIREBIRD 4              
1 40378U 15003C   22150.53287300  .00014099  00000+0  42535-3 0  9993
2 40378  99.1031  11.6624 0102815  85.8616 275.4362 15.29303536405687
GRIFEX                  
1 40379U 15003D   22151.04161808  .00009290  00000+0  33126-3 0  9998
2 40379  99.1132 358.3939 0117553 125.4257 235.8019 15.22814820404984
CP10 (EXOCUBE)          
1 40380U 15003E   22150.77623645  .00007731  00000+0  29922-3 0  9998
2 40380  99.1216 350.9959 0124859 149.8133 211.0368 15.19551969404474
TIANWANG 1A (TW-1A)     
1 40928U 15051D   22151.01789462  .00044593  00000+0  58047-3 0  9994
2 40928  97.0395 173.8373 0010181  95.7250 294.7493 15.58572378375520
EXACTVIEW 9             
1 40936U 15052G   22150.01289726  .00001608  00000+0  13341-3 0  9999
2 40936   6.0041 305.1819 0010950 256.4419 103.4488 14.77130295360486
AEROCUBE 5C             
1 40965U 15058B   22150.69362537  .00000775  00000+0  10176-3 0  9990
2 40965  64.7754 145.2442 0195173 205.9252 153.1977 14.75576745146344
AEROCUBE 7              
1 40966U 15058C   22150.69870922  .00000968  00000+0  12149-3 0  9999
2 40966  64.7754 142.4713 0193238 205.6023 153.5419 14.76117395146346
ATHENOXAT 1             
1 41168U 15077C   22150.85456728  .00015163  00000+0  63486-3 0  9990
2 41168  14.9881 220.8479 0007607 344.1821 162.0148 15.20665906357623
GALASSIA                
1 41170U 15077E   22150.80943555  .00007879  00000+0  31995-3 0  9992
2 41170  14.9871 211.8536 0010788  21.6966 338.3812 15.20077827357535
VELOX-II                
1 41171U 15077F   22150.74841652  .00006780  00000+0  31043-3 0  9995
2 41171  14.9919 284.6267 0007764 221.3678 138.6055 15.15584462356921
HORYU-4                 
1 41340U 16012D   22150.57717835  .00002885  00000+0  20152-3 0  9990
2 41340  31.0037 113.2805 0013097  21.5025 338.6159 15.03229043345032
